LEMUR-2-ALISIA          
1 62706U 25009DB  26170.73243979  .00005776  00000+0  43605-3 0  9992
2 62706  97.6941 252.8852 0002250 190.2361 169.8819 15.02796319100547
LEMUR-2-ROUNDTRIPPER    
1 62711U 25009DG  26170.75533828  .00007088  00000+0  51950-3 0  9995
2 62711  97.7251 253.4312 0005596 123.5538 236.6222 15.03827148 78010
LEMUR-2-MYNAMEISJEFF    
1 62712U 25009DH  26170.75373784  .00006636  00000+0  48675-3 0  9997
2 62712  97.7298 253.8124 0003834 144.7546 215.3934 15.03831296 78017
LEMUR-2-LEIA-PHILIP     
1 63246U 25052AN  26170.67596410  .00000483  00000+0  46555-4 0  9992
2 63246  97.6834  62.5854 0002825 201.8869 158.2233 14.97323073 69043
LEMUR-2-LIA-MARTIN      
1 63248U 25052AQ  26170.94743394  .00002934  00000+0  25455-3 0  9997
2 63248  97.6885  63.3313 0003033 154.2271 205.9103 14.97818731 69091
LEMUR-2-DELOITTE-1      
1 63259U 25052BB  26170.65693243  .00003522  00000+0  30614-3 0  9991
2 63259  97.6922  63.3737 0003546  92.0664 268.0964 14.97621203 69067
LEMUR-2-EMERSONROSE     
1 63261U 25052BD  26170.69642749  .00002855  00000+0  23988-3 0  9997
2 63261  97.6877  63.9759 0001734  70.4083 289.7327 14.99092847 69118
LEMUR-2-MARACHE-FRAN    
1 63262U 25052BE  26170.67003802  .00004029  00000+0  32763-3 0  9993
2 63262  97.6934  64.2723 0005104  14.0732 346.0632 15.00121452 69134
LEMUR-2-THEFALCONER     
1 63264U 25052BG  26170.68366524  .00002473  00000+0  21767-3 0  9992
2 63264  97.6852  63.0182 0002341  25.2205 334.9131 14.97400156 69068
LEMUR-2-UNTITLED-SC     
1 63351U 25061A   26170.86551250  .00003148  00000+0  17907-3 0  9992
2 63351  97.5638 146.2078 0016992 254.3090 105.6267 15.13492685 67998
LEMUR-2-ESPERANZA       
1 63352U 25061B   26170.90859385  .00002406  00000+0  13742-3 0  9997
2 63352  97.5645 146.3445 0016547 253.3666 106.5749 15.13583793 68009
LEMUR-2-KREMPEL-BRO2    
1 63353U 25061C   26170.47214873  .00003115  00000+0  17460-3 0  9996
2 63353  97.5692 146.4474 0017582 246.8225 113.1154 15.14019360 67955
LEMUR-2-THERMORAPTOR    
1 63354U 25061D   26170.91670946  .00002677  00000+0  15027-3 0  9992
2 63354  97.5696 146.9656 0017296 243.9830 115.9621 15.14101532 68020
LEMUR-2-NEUROSPICY      
1 63355U 25061E   26170.88817734  .00003184  00000+0  17757-3 0  9993
2 63355  97.5626 146.5613 0015111 247.7188 112.2441 15.14216694 68021
LEMUR-2-TILLINFINITY    
1 63356U 25061F   26170.92239714  .00002775  00000+0  15267-3 0  9994
2 63356  97.5606 146.8876 0016511 234.7247 125.2441 15.14802490 68053
LEMUR-2-KREMPEL-BRO1    
1 63357U 25061G   26170.89621998  .00002943  00000+0  16253-3 0  9993
2 63357  97.5612 146.7770 0017132 236.2992 123.6607 15.14607329 68046
LEMUR-2-LANGER2SPACE    
1 63358U 25061H   26170.46071311  .00002854  00000+0  15920-3 0  9996
2 63358  97.5616 146.1570 0014996 247.5926 112.3717 15.14302187 67961
LEMUR-2-BALTO           
1 63395U 25052BH  26170.65475059  .00004912  00000+0  39840-3 0  9999
2 63395  97.6898  64.2339 0006887  51.6334 308.5507 15.00110106 69135
LEMUR-2-KRISH           
1 64561U 25135AK  26170.74941550  .00003812  00000+0  34302-3 0  9997
2 64561  97.7755 285.6081 0001661  97.4201 262.7209 14.96229980 54301
LEMUR-2-HUBBLE-4        
1 64565U 25135AP  26170.54879787  .00001095  00000+0  11027-3 0  9991
2 64565  97.7702 284.4259 0000897 288.3995  71.7127 14.93203864 54220
LEMUR-2-SEJONG-2        
1 64586U 25135BL  26170.91226985  .00003330  00000+0  29661-3 0  9998
2 64586  97.7685 285.9143 0003560 327.1931  32.9069 14.96712486 54359
LEMUR-2-HUBBLE-5        
1 64840U 25135BT  26170.76926106  .00000810  00000+0  81056-4 0  9993
2 64840  97.7721 285.2820 0004862 344.3893  15.7176 14.94140919 54297
LEMUR-2-KARENDARRELL    
1 64841U 25135BU  26170.78628723  .00006430  00000+0  51931-3 0  9992
2 64841  97.7681 286.9897 0009885 192.0079 168.0910 15.00141029 54401
LEMUR-2-LUCILLE-ROSE    
1 65403U 25135BV  26170.55981887  .00005018  00000+0  40597-3 0  9992
2 65403  97.7764 286.7860 0011401 273.6348  86.3572 15.00176766 48997
LEMUR-2-AFFIE-WAUWIE    
1 66295U 25248C   26170.14891995  .00015354  00000+0  57489-3 0  9994
2 66295  45.3921 104.3599 0007326  97.1817 262.9905 15.27203290 34894
LEMUR-2-DEANANDMAEVE    
1 66678U 25276N   26170.68500666  .00005498  00000+0  26013-3 0  9998
2 66678  97.4207 244.1192 0005460   6.3008 353.8294 15.19758314 30796
LEMUR-2-STAS-GORBUK     
1 66686U 25276W   26170.76594931  .00004501  00000+0  21576-3 0  9997
2 66686  97.4242 244.2537 0004851   6.8934 353.2367 15.19403010 30801
LEMUR-2-TEODOR          
1 66768U 25276DG  26170.94426225  .00004859  00000+0  22172-3 0  9997
2 66768  97.4147 244.6688 0002226 114.2068 245.9401 15.21074874 30860
LEMUR-2-LAILA           
1 66776U 25276DQ  26170.72044966  .00004453  00000+0  20220-3 0  9992
2 66776  97.4170 244.5708 0002364 132.5690 227.5746 15.21294575 30831
