OBJECT_NAME,OBJECT_ID,EPOCH,MEAN_MOTION,ECCENTRICITY,INCLINATION,RA_OF_ASC_NODE,ARG_OF_PERICENTER,MEAN_ANOMALY,EPHEMERIS_TYPE,CLASSIFICATION_TYPE,NORAD_CAT_ID,ELEMENT_SET_NO,REV_AT_EPOCH,BSTAR,MEAN_MOTION_DOT,MEAN_MOTION_DDOT
LEMUR-2-ALISIA,2025-009DB,2026-06-19T17:34:42.797856,15.02796319,.00022504,97.6941,252.8852,190.2361,169.8819,0,U,62706,999,10054,.43604777E-3,.5776E-4,0
LEMUR-2-ROUNDTRIPPER,2025-009DG,2026-06-19T18:07:41.227392,15.03827148,.0005596,97.7251,253.4312,123.5538,236.6222,0,U,62711,999,7801,.51949722E-3,.7088E-4,0
LEMUR-2-MYNAMEISJEFF,2025-009DH,2026-06-19T18:05:22.949376,15.03831296,.00038346,97.7298,253.8124,144.7546,215.3934,0,U,62712,999,7801,.48674813E-3,.6636E-4,0
LEMUR-2-LEIA-PHILIP,2025-052AN,2026-06-19T16:13:23.298240,14.97323073,.0002825,97.6834,62.5854,201.8869,158.2233,0,U,63246,999,6904,.46554697E-4,.483E-5,0
LEMUR-2-LIA-MARTIN,2025-052AQ,2026-06-19T22:44:18.292416,14.97818731,.00030338,97.6885,63.3313,154.2271,205.9103,0,U,63248,999,6909,.25454709E-3,.2934E-4,0
LEMUR-2-DELOITTE-1,2025-052BB,2026-06-19T15:45:58.961952,14.97621203,.00035464,97.6922,63.3737,92.0664,268.0964,0,U,63259,999,6906,.30613759E-3,.3522E-4,0
LEMUR-2-EMERSONROSE,2025-052BD,2026-06-19T16:42:51.335136,14.99092847,.00017341,97.6877,63.9759,70.4083,289.7327,0,U,63261,999,6911,.23988157E-3,.2855E-4,0
LEMUR-2-MARACHE-FRAN,2025-052BE,2026-06-19T16:04:51.284928,15.00121452,.00051047,97.6934,64.2723,14.0732,346.0632,0,U,63262,999,6913,.32762869E-3,.4029E-4,0
LEMUR-2-THEFALCONER,2025-052BG,2026-06-19T16:24:28.676736,14.97400156,.00023411,97.6852,63.0182,25.2205,334.9131,0,U,63264,999,6906,.21767265E-3,.2473E-4,0
LEMUR-2-UNTITLED-SC,2025-061A,2026-06-19T20:46:20.280000,15.13492685,.00169929,97.5638,146.2078,254.3090,105.6267,0,U,63351,999,6799,.17906628E-3,.3148E-4,0
LEMUR-2-ESPERANZA,2025-061B,2026-06-19T21:48:22.508640,15.13583793,.00165477,97.5645,146.3445,253.3666,106.5749,0,U,63352,999,6800,.13742478E-3,.2406E-4,0
LEMUR-2-KREMPEL-BRO2,2025-061C,2026-06-19T11:19:53.650272,15.14019360,.00175821,97.5692,146.4474,246.8225,113.1154,0,U,63353,999,6795,.17459775E-3,.3115E-4,0
LEMUR-2-THERMORAPTOR,2025-061D,2026-06-19T22:00:03.697344,15.14101532,.0017296,97.5696,146.9656,243.9830,115.9621,0,U,63354,999,6802,.15026725E-3,.2677E-4,0
LEMUR-2-NEUROSPICY,2025-061E,2026-06-19T21:18:58.522176,15.14216694,.00151117,97.5626,146.5613,247.7188,112.2441,0,U,63355,999,6802,.17756892E-3,.3184E-4,0
LEMUR-2-TILLINFINITY,2025-061F,2026-06-19T22:08:15.112896,15.14802490,.0016511,97.5606,146.8876,234.7247,125.2441,0,U,63356,999,6805,.15266716E-3,.2775E-4,0
LEMUR-2-KREMPEL-BRO1,2025-061G,2026-06-19T21:30:33.406272,15.14607329,.00171323,97.5612,146.7770,236.2992,123.6607,0,U,63357,999,6804,.16253272E-3,.2943E-4,0
LEMUR-2-LANGER2SPACE,2025-061H,2026-06-19T11:03:25.612704,15.14302187,.00149965,97.5616,146.1570,247.5926,112.3717,0,U,63358,999,6796,.15920354E-3,.2854E-4,0
LEMUR-2-BALTO,2025-052BH,2026-06-19T15:42:50.450976,15.00110106,.0006887,97.6898,64.2339,51.6334,308.5507,0,U,63395,999,6913,.3983967E-3,.4912E-4,0
LEMUR-2-KRISH,2025-135AK,2026-06-19T17:59:09.499200,14.96229980,.0001661,97.7755,285.6081,97.4201,262.7209,0,U,64561,999,5430,.3430234E-3,.3812E-4,0
LEMUR-2-HUBBLE-4,2025-135AP,2026-06-19T13:10:16.135968,14.93203864,.0000897,97.7702,284.4259,288.3995,71.7127,0,U,64565,999,5422,.11026535E-3,.1095E-4,0
LEMUR-2-SEJONG-2,2025-135BL,2026-06-19T21:53:40.115040,14.96712486,.00035606,97.7685,285.9143,327.1931,32.9069,0,U,64586,999,5435,.29660706E-3,.333E-4,0
LEMUR-2-HUBBLE-5,2025-135BT,2026-06-19T18:27:44.155584,14.94140919,.00048625,97.7721,285.2820,344.3893,15.7176,0,U,64840,999,5429,.81056265E-4,.81E-5,0
LEMUR-2-KARENDARRELL,2025-135BU,2026-06-19T18:52:15.216672,15.00141029,.00098855,97.7681,286.9897,192.0079,168.0910,0,U,64841,999,5440,.51931093E-3,.643E-4,0
LEMUR-2-LUCILLE-ROSE,2025-135BV,2026-06-19T13:26:08.350368,15.00176766,.00114018,97.7764,286.7860,273.6348,86.3572,0,U,65403,999,4899,.40596519E-3,.5018E-4,0
LEMUR-2-AFFIE-WAUWIE,2025-248C,2026-06-19T03:34:26.683680,15.27203290,.00073268,45.3921,104.3599,97.1817,262.9905,0,U,66295,999,3489,.57489484E-3,.15354E-3,0
LEMUR-2-DEANANDMAEVE,2025-276N,2026-06-19T16:26:24.575424,15.19758314,.00054608,97.4207,244.1192,6.3008,353.8294,0,U,66678,999,3079,.26012801E-3,.5498E-4,0
LEMUR-2-STAS-GORBUK,2025-276W,2026-06-19T18:22:58.020384,15.19403010,.0004851,97.4242,244.2537,6.8934,353.2367,0,U,66686,999,3080,.21576279E-3,.4501E-4,0
LEMUR-2-TEODOR,2025-276DG,2026-06-19T22:39:44.258400,15.21074874,.00022268,97.4147,244.6688,114.2068,245.9401,0,U,66768,999,3086,.22171863E-3,.4859E-4,0
LEMUR-2-LAILA,2025-276DQ,2026-06-19T17:17:26.850624,15.21294575,.00023648,97.4170,244.5708,132.5690,227.5746,0,U,66776,999,3083,.20219929E-3,.4453E-4,0
